POPACS 1                
1 39268U 13055D   22176.87568749  .00015636  00000+0  39619-3 0  9995
2 39268  80.9966 230.4359 0571552 175.0036 185.7226 14.50512801454529
POPACS 2                
1 39269U 13055E   22176.32708879  .00005221  00000+0  14399-3 0  9993
2 39269  81.0125 288.0544 0645997 324.6516  31.3392 14.33058647451312
POPACS 3                
1 39270U 13055F   22176.67906104  .00003857  00000+0  11497-3 0  9993
2 39270  81.0141 320.6946 0689337  57.0671 309.4885 14.22023159429809
ZACUBE-1 (TSHEPISOSAT)  
1 39417U 13066B   22176.87253103  .00001628  00000+0  20388-3 0  9997
2 39417  97.6365 147.9889 0058400  18.6775 341.6564 14.82372455464373
WNISAT-1                
1 39423U 13066H   22176.89980030  .00000464  00000+0  99936-4 0  9995
2 39423  97.7528  57.7575 0175472 111.2095 250.7947 14.53492318455684
TRITON-1                
1 39427U 13066M   22176.78099838  .00000658  00000+0  11073-3 0  9994
2 39427  97.8136 112.2147 0110462 237.7602 121.2860 14.68988723460006
DELFI-N3XT              
1 39428U 13066N   22176.83528162  .00001228  00000+0  19655-3 0  9996
2 39428  97.8147 110.8334 0115683 250.9789 107.8856 14.69218515459766
GOMX-1                  
1 39430U 13066Q   22175.71835090  .00001690  00000+0  30809-3 0  9993
2 39430  97.8095  82.5020 0150085  22.5380 338.2325 14.60209619457353
CUBEBUG-2 (LO-74)       
1 39440U 13066AA  22176.85611227  .00001242  00000+0  17406-3 0  9995
2 39440  97.7263 134.0596 0080278 103.8648 257.1510 14.77025339461529
NEE-02 KRYSAOR          
1 39441U 13066AB  22176.86555113  .00000807  00000+0  11883-3 0  9997
2 39441  97.7376 131.2502 0081966 117.2308 243.7284 14.75755318461274
FUNCUBE-1 (AO-73)       
1 39444U 13066AE  22176.88307167  .00001944  00000+0  23626-3 0  9997
2 39444  97.6238 150.4052 0056871   6.9819 353.2175 14.83463387462777
UWE-3                   
1 39446U 13066AG  22176.86345444  .00001482  00000+0  19652-3 0  9998
2 39446  97.6857 140.5628 0070202  62.4962 298.3363 14.79589345461703
AEROCUBE 5A             
1 39465U 13072D   22176.73602852  .00022138  00000+0  13142-2 0  9999
2 39465 120.4861 343.4118 0196339 288.0339  69.9422 14.96613087150866
AEROCUBE 5B             
1 39466U 13072E   22176.57898970  .00061173  00000+0  22748-2 0  9994
2 39466 120.4600  70.0424 0142965 311.1278  47.7531 15.17944229151963
BRITE-CA1 (TORONTO)     
1 40020U 14033L   22176.67017068  .00000391  00000+0  74580-4 0  9990
2 40020  97.7791 335.2117 0085644 236.7386 122.5592 14.67047566428862
DUCHIFAT-1              
1 40021U 14033M   22176.85237989  .00002340  00000+0  23105-3 0  9999
2 40021  98.0122 127.2055 0013098  20.0299 340.1431 14.92919344435954
NANOSATC-BR1            
1 40024U 14033Q   22176.79682931  .00002416  00000+0  24529-3 0  9991
2 40024  97.9857 120.4751 0012725  27.3028 332.8857 14.91760780435221
QB50P1                  
1 40025U 14033R   22176.78295173  .00001809  00000+0  19085-3 0  9995
2 40025  97.9608 114.2469 0013187  35.7538 324.4560 14.90532547435006
QB50P2                  
1 40032U 14033Y   22176.81164604  .00001598  00000+0  17163-3 0  9991
2 40032  97.9383 109.6257 0012609  33.8628 326.3392 14.89957712435382
PERSEUS-M2              
1 40037U 14033AD  22176.78456444  .00000625  00000+0  75622-4 0  9993
2 40037  97.8968  98.9597 0015543  54.1823 306.0835 14.87114812434363
PERSEUS-M1              
1 40039U 14033AF  22176.78152127  .00000597  00000+0  73180-4 0  9991
2 40039  97.8870  96.7048 0015366  53.3508 306.9118 14.86723968434245
POLYITAN-1              
1 40042U 14033AJ  22176.79711846  .00001853  00000+0  19509-3 0  9995
2 40042  97.9709 115.4624 0015238  27.6437 332.5588 14.90560756434899
TIGRISAT                
1 40043U 14033AK  22176.77544995  .00000816  00000+0  12481-3 0  9993
2 40043  97.6562   5.5865 0060428 128.6632 232.0007 14.75025494430850
AEROCUBE 6A             
1 40045U 14033AM  22176.80497712  .00000914  00000+0  13487-3 0  9999
2 40045  97.6664  14.4071 0058274 116.5107 244.2095 14.76413340431015
AEROCUBE 6B             
1 40046U 14033AN  22176.78025577  .00001578  00000+0  22617-3 0  9995
2 40046  97.6575  12.8434 0057239 114.9261 245.7913 14.76751933431013
UKUBE-1                 
1 40074U 14037F   22176.90647621  .00001637  00000+0  19687-3 0  9993
2 40074  98.3816  58.0183 0003035 271.9311  88.1548 14.85431197431322
BRITE-PL2 (HEWELIUSZ)   
1 40119U 14049B   22176.83306295  .00000774  00000+0  96651-4 0  9995
2 40119  97.8841 272.3719 0016527 210.6015 149.4237 14.85145405425256
FIREBIRD 4              
1 40378U 15003C   22176.89409007  .00013884  00000+0  41198-3 0  9995
2 40378  99.1010  43.9009 0099670 357.0984   2.9660 15.30117941409712
GRIFEX                  
1 40379U 15003D   22176.86047640  .00009197  00000+0  32411-3 0  9994
2 40379  99.1115  29.6890 0115978  39.5368 321.4251 15.23354418408905
CP10 (EXOCUBE)          
1 40380U 15003E   22176.52009308  .00006218  00000+0  23907-3 0  9999
2 40380  99.1205  22.0719 0124298  64.5262 296.8765 15.19943447408388
TIANWANG 1A (TW-1A)     
1 40928U 15051D   22176.88625672  .00038089  00000+0  46317-3 0  9998
2 40928  97.0383 199.4674 0006286  16.1150  61.3395 15.60443756379558
EXACTVIEW 9             
1 40936U 15052G   22176.41258467  .00001369  00000+0  10027-3 0  9991
2 40936   6.0031 116.7335 0010879 269.3686  90.5195 14.77169978364398
AEROCUBE 5C             
1 40965U 15058B   22176.92197142  .00000715  00000+0  96113-4 0  9992
2 40965  64.7779  65.6554 0191962 197.5881 161.8518 14.75623626150215
AEROCUBE 7              
1 40966U 15058C   22176.91735183  .00000976  00000+0  12329-3 0  9990
2 40966  64.7779  62.8444 0190009 197.2435 162.2160 14.76176365150218
ATHENOXAT 1             
1 41168U 15077C   22175.95313992  .00012887  00000+0  52644-3 0  9997
2 41168  14.9877  34.8278 0009520 344.2294  54.3839 15.21174396361454
GALASSIA                
1 41170U 15077E   22176.20041554  .00008513  00000+0  34398-3 0  9998
2 41170  14.9897  23.8553 0011079  16.1511 343.9163 15.20487465361407
VELOX-II                
1 41171U 15077F   22176.41315790  .00006005  00000+0  26850-3 0  9996
2 41171  14.9913  95.9259 0007927 220.5128 139.4603 15.15878511360824
HORYU-4                 
1 41340U 16012D   22176.73808715  .00002317  00000+0  15989-3 0  9996
2 41340  31.0052 306.2177 0013289 283.1568  76.7585 15.03372820348977
E-ST@R-II               
1 41459U 16025D   22176.68690188  .00008373  00000+0  36453-3 0  9995
2 41459  98.1864 342.4502 0144060 241.1574 117.5097 15.13562120338741
AAUSAT 4                
1 41460U 16025E   22176.44270177  .00017178  00000+0  65759-3 0  9997
2 41460  98.1793 348.4583 0124911 217.7897 141.4375 15.19571498339154
BEESAT-4                
1 41619U 16040W   22176.61086621  .00011149  00000+0  36993-3 0  9998
2 41619  97.2167 227.0225 0011291  91.0584 269.1952 15.31342478321970
RAVAN                   
1 41849U 16067B   22176.91270867  .00002249  00000+0  18197-3 0  9999
2 41849  98.0014 314.1355 0015390 319.7706  40.2376 15.00774217307267
CELTEE 1                
1 41850U 16067C   22176.86049931  .00001890  00000+0  16326-3 0  9994
2 41850  98.0003 309.0988 0006993 320.7987  39.2728 14.98500505307019
OPTICUBE 04             
1 41851U 16067D   22176.91164960  .00001528  00000+0  13538-3 0  9991
2 41851  97.9974 308.1941 0007210 320.0706  39.9984 14.97802950306972
AEROCUBE 8D             
1 41852U 16067E   22176.85073214  .00002464  00000+0  21173-3 0  9990
2 41852  97.9971 308.1414 0007570 321.3465  38.7214 14.98395955306954
AEROCUBE 8C             
1 41853U 16067F   22176.89875099  .00001819  00000+0  15781-3 0  9997
2 41853  97.9946 308.0136 0008386 315.5041  44.5506 14.98355735306959
PROMETHEUS 2-1          
1 41854U 16067G   22176.92780397  .00003069  00000+0  25461-3 0  9993
2 41854  98.0000 309.1266 0008893 329.5603  30.5102 14.99555216307013
PROMETHEUS 2-3          
1 41855U 16067H   22176.92039658  .00003595  00000+0  29731-3 0  9999
2 41855  97.9986 309.1946 0007681 332.0178  28.0630 14.99567201307015
INS-1B                  
1 41954U 17008G   22176.73729106  .00010120  00000+0  33272-3 0  9995
2 41954  97.2575 236.4512 0007582 191.7037 168.4030 15.31701479298013
BGUSAT                  
1 41999U 17008BD  22176.91191559  .00026243  00000+0  63024-3 0  9990
2 41999  97.2812 247.2855 0006278 175.5832 184.5471 15.41309469297943
DIDO-2                  
1 42000U 17008BE  22176.86816869  .00004942  00000+0  17990-3 0  9999
2 42000  97.2564 235.9489 0006459 216.1014 143.9791 15.28650980297354
PEASSS                  
1 42015U 17008BV  22176.69497017  .00008424  00000+0  27673-3 0  9994
2 42015  97.2632 239.6315 0004737 204.5159 155.5858 15.31800195298031
AL-FARABI 1             
1 42016U 17008BW  22176.83045924  .00012831  00000+0  38296-3 0  9997
2 42016  97.2699 242.8110 0004563 195.4792 164.6313 15.34745120298331
NAYIF-1 (EO-88)         
1 42017U 17008BX  22176.90993875  .00013192  00000+0  39193-3 0  9991
2 42017  97.2690 242.9016 0004854 193.5306 166.5808 15.34884508298370
UCLSAT                  
1 42765U 17036A   22176.89212502  .00009104  00000+0  31607-3 0  9991
2 42765  97.1968 219.2923 0007320 297.3841  62.6655 15.29965404279148
LITUANICASAT-2          
1 42768U 17036D   22176.87224205  .00020907  00000+0  59773-3 0  9993
2 42768  97.2054 222.0473 0008289 270.6067  89.4228 15.35969614278549
AALTO-1                 
1 42775U 17036L   22176.82836069  .00005081  00000+0  20162-3 0  9999
2 42775  97.1969 214.2606 0010645 300.4368  59.5819 15.25736846278055
URSA MAIOR              
1 42776U 17036M   22176.60955958  .00005386  00000+0  21003-3 0  9998
2 42776  97.1984 214.7859 0010287 300.0357  59.9861 15.26299172278052
COMPASS 2               
1 42777U 17036N   22176.91503066  .00014043  00000+0  44474-3 0  9999
2 42777  97.2043 221.4230 0007435 278.2140  81.8259 15.32820861278445
